line1,line2,classification,launch_year,launch_number,launch_piece,epoch_year,epoch_day,mean_motion_dot,mean_motion_ddot,bstar,ephemeris_type,element_number,satellite_number,inclination,ra_of_asc_node,eccentricity,arg_of_perigee,mean_anomaly,mean_motion,rev_at_epoch,datetime,x,y,z,cartesian_cords,NORAD_CAT_ID,OBJECT_TYPE,SATNAME,SITE,Operator/Owner,Users,Purpose,anom_inclination,anom_ra_of_asc_node,anom_eccentricity,anom_arg_of_perigee,anom_mean_anomaly,anom_mean_motion,anom_count
1 01570U 65070A   22016.54311896 -.00000113  00000-0 -10900-3 0  9999,2 01570  56.0546 165.9761 0099793 296.2241 133.2321 12.52767050579268,U,65,070,A,22,16.54311896,-1.13e-06,0.0,-0.000109,0,999,1570,56.0546,165.9761,0.0099793,296.2241,133.2321,12.5276705,57926,2022-01-16 13:02:05.478144,-3589.766941794895,-3355.945248442841,6158.112595533214,[-3589.76694179 -3355.94524844  6158.11259553],1570,PAYLOAD,COSMOS 80,TTMTR,0,0,0,0.0,0.0,0.0,0.0,0.0,0.0,0.0
1 01570U 65070A   22015.73268241 -.00000105  00000-0 -57442-4 0  9998,2 01570  56.0545 168.1748 0099767 295.1060  78.2148 12.52767065579165,U,65,070,A,22,15.73268241,-1.05e-06,0.0,-5.744200000000001e-05,0,999,1570,56.0545,168.1748,0.0099767,295.106,78.2148,12.52767065,57916,2022-01-15 17:35:03.760224,-7626.428737157272,529.6634342741987,1623.420021244106,[-7626.42873716   529.66343427  1623.42002124],1570,PAYLOAD,COSMOS 80,TTMTR,0,0,0,0.0,0.0,0.0,0.0,0.0,0.0,0.0
1 01570U 65070A   22015.58602263 -.00000106  00000-0 -62589-4 0  9996,2 01570  56.0545 168.5727 0099763 294.9025 136.7897 12.52767062579146,U,65,070,A,22,15.58602263,-1.06e-06,0.0,-6.258899999999999e-05,0,999,1570,56.0545,168.5727,0.0099763,294.9025,136.7897,12.52767062,57914,2022-01-15 14:03:52.355232,-3166.8833475119363,-3627.7344932941533,6239.604461647782,[-3166.88334751 -3627.73449329  6239.60446165],1570,PAYLOAD,COSMOS 80,TTMTR,0,0,0,0.0,0.0,0.0,0.0,0.0,0.0,0.0
1  1570U 65070A   22015.34681786 -.00000101  00000-0 -34628-4 0  9995,2  1570  56.0544 169.2217 0099759 294.5730 137.9908 12.52767068579558,U,65,070,A,22,15.34681786,-1.01e-06,0.0,-3.4628e-05,0,999,1570,56.0544,169.2217,0.0099759,294.573,137.9908,12.52767068,57955,2022-01-15 08:19:25.063104,-3019.3120493685874,-3704.5880554580453,6268.8558887111485,[-3019.31204937 -3704.58805546  6268.85588871],1570,PAYLOAD,COSMOS 80,TTMTR,0,0,0,0.0,0.0,0.0,0.0,0.0,0.0,0.0
1 01570U 65070A   22014.79747462 -.00000100  00000-0 -28844-4 0  9999,2 01570  56.0543 170.7120 0099746 293.8125 180.4903 12.52767035579049,U,65,070,A,22,14.79747462,-1e-06,0.0,-2.8844e-05,0,999,1570,56.0543,170.712,0.0099746,293.8125,180.4903,12.52767035,57904,2022-01-14 19:08:21.807168,2554.184744972282,-4507.913298463376,5967.586659730264,[ 2554.18474497 -4507.91329846  5967.58665973],1570,PAYLOAD,COSMOS 80,TTMTR,0,0,0,0.0,0.0,0.0,0.0,0.0,0.0,0.0
1 01570U 65070A   22014.54795036 -.00000101  00000-0 -31505-4 0  9991,2 01570  56.0543 171.3890 0099739 293.4690 135.1510 12.52767035579013,U,65,070,A,22,14.54795036,-1.01e-06,0.0,-3.1505000000000004e-05,0,999,1570,56.0543,171.389,0.0099739,293.469,135.151,12.52767035,57901,2022-01-14 13:09:02.911104,-3364.694336524782,-3641.86057098573,6125.056796220385,[-3364.69433652 -3641.86057099  6125.05679622],1570,PAYLOAD,COSMOS 80,TTMTR,0,0,0,0.0,0.0,0.0,0.0,0.0,0.0,0.0
1 01570U 65070A   22013.75595654 -.00000089  00000-0  40332-4 0  9999,2 01570  56.0541 173.5377 0099727 292.3743 163.3113 12.52767050578916,U,65,070,A,22,13.75595654,-8.9e-07,0.0,0.0,0,999,1570,56.0541,173.5377,0.0099727,292.3743,163.3113,12.5276705,57891,2022-01-13 18:08:34.645056,320.90621568537773,-4454.9493948025765,6514.86735151503,[  320.90621569 -4454.9493948   6514.86735152],1570,PAYLOAD,COSMOS 80,TTMTR,0,0,0,0.0,0.0,0.0,0.0,0.0,0.0,0.0
1 01570U 65070A   22013.59121701 -.00000090  00000-0  37962-4 0  9996,2 01570  56.0541 173.9847 0099724 292.1472 140.3464 12.52767054578891,U,65,070,A,22,13.59121701,-9e-07,0.0,0.0,0,999,1570,56.0541,173.9847,0.0099724,292.1472,140.3464,12.52767054,57889,2022-01-13 14:11:21.149664,-2715.5747506985995,-3940.793955339865,6266.333112105402,[-2715.5747507  -3940.79395534  6266.33311211],1570,PAYLOAD,COSMOS 80,TTMTR,0,0,0,0.0,0.0,0.0,0.0,0.0,0.0,0.0
1  1570U 65070A   22012.80250192 -.00000080  00000-0  96023-4 0  9998,2  1570  56.0540 176.1245 0099707 291.0575 183.2931 12.52767060579231,U,65,070,A,22,12.80250192,-8e-07,0.0,0.0,0,999,1570,56.054,176.1245,0.0099707,291.0575,183.2931,12.5276706,57923,2022-01-12 19:15:36.165888,2967.070334904045,-4248.190283492362,5966.922087780071,[ 2967.0703349  -4248.19028349  5966.92208778],1570,PAYLOAD,COSMOS 80,TTMTR,0,0,0,0.0,0.0,0.0,0.0,0.0,0.0,0.0
1 01570U 65070A   22012.55488703 -.00000082  00000-0  87449-4 0  9995,2 01570  56.0539 176.7963 0099703 290.7150 146.5666 12.52767057578763,U,65,070,A,22,12.55488703,-8.2e-07,0.0,0.0,0,999,1570,56.0539,176.7963,0.0099703,290.715,146.5666,12.52767057,57876,2022-01-12 13:19:02.239392,-1900.9653393065144,-4200.4313706720395,6402.2453579558605,[-1900.96533931 -4200.43137067  6402.24535796],1570,PAYLOAD,COSMOS 80,TTMTR,0,0,0,0.0,0.0,0.0,0.0,0.0,0.0,0.0
1 01570U 65070A   22011.74270978 -.00000075  00000-0  12887-3 0  9993,2 01570  56.0538 178.9998 0099683 289.5944  83.6992 12.52767065578669,U,65,070,A,22,11.74270978,-7.5e-07,0.0,0.0,0,999,1570,56.0538,178.9998,0.0099683,289.5944,83.6992,12.52767065,57866,2022-01-11 17:49:30.124992,-7597.726471169918,-912.7114531138421,1623.537293900239,[-7597.72647117  -912.71145311  1623.5372939 ],1570,PAYLOAD,COSMOS 80,TTMTR,0,0,0,0.0,0.0,0.0,0.0,0.0,0.0,0.0
1 01570U 65070A   22011.21961380 -.00000076  00000-0  12520-3 0  9994,2 01570  56.0537 180.4190 0099679 288.8700 244.5726 12.52767064578591,U,65,070,A,22,11.2196138,-7.6e-07,0.0,0.0,0,999,1570,56.0537,180.419,0.0099679,288.87,244.5726,12.52767064,57859,2022-01-11 05:16:14.632320,7801.375526500101,-554.4606727092386,834.4217637150913,[7801.3755265  -554.46067271  834.42176372],1570,PAYLOAD,COSMOS 80,TTMTR,0,0,0,0.0,0.0,0.0,0.0,0.0,0.0,0.0
1  1570U 65070A   22010.78468356 -.00000078  00000-0  11044-3 0  9992,2  1570  56.0536 181.5990 0099670 288.2665  83.0684 12.52767046578987,U,65,070,A,22,10.78468356,-7.8e-07,0.0,0.0,0,999,1570,56.0536,181.599,0.009967,288.2665,83.0684,12.52767046,57898,2022-01-10 18:49:56.659584,-7613.579177122686,-1112.3480246819581,1407.403893585939,[-7613.57917712 -1112.34802468  1407.40389359],1570,PAYLOAD,COSMOS 80,TTMTR,0,0,0,0.0,0.0,0.0,0.0,0.0,0.0,0.0
1 01570U 65070A   22010.23490727 -.00000085  00000-0  69882-4 0  9991,2 01570  56.0535 183.0906 0099659 287.5097 123.6109 12.52767015578471,U,65,070,A,22,10.23490727,-8.5e-07,0.0,0.0,0,999,1570,56.0535,183.0906,0.0099659,287.5097,123.6109,12.52767015,57847,2022-01-10 05:38:15.988128,-4657.258252095404,-3697.9888278886515,5154.445698902202,[-4657.2582521  -3697.98882789  5154.4456989 ],1570,PAYLOAD,COSMOS 80,TTMTR,0,0,0,0.0,0.0,0.0,0.0,0.0,0.0,0.0
1 01570U 65070A   22009.85018284 -.00000088  00000-0  45941-4 0  9994,2 01570  56.0534 184.1344 0099652 286.9755 188.5316 12.52766989578429,U,65,070,A,22,9.85018284,-8.8e-07,0.0,0.0,0,999,1570,56.0534,184.1344,0.0099652,286.9755,188.5316,12.52766989,57842,2022-01-09 20:24:15.797376,3659.298723431646,-3751.8189809883033,5914.161039312956,[ 3659.29872343 -3751.81898099  5914.16103931],1570,PAYLOAD,COSMOS 80,TTMTR,0,0,0,0.0,0.0,0.0,0.0,0.0,0.0,0.0
1 01570U 65070A   22009.60025365 -.00000092  00000-0  22473-4 0  9995,2 01570  56.0534 184.8125 0099645 286.6335 141.3643 12.52766992578396,U,65,070,A,22,9.60025365,-9.2e-07,0.0,0.0,0,999,1570,56.0534,184.8125,0.0099645,286.6335,141.3643,12.52766992,57839,2022-01-09 14:24:21.915360,-2522.0113402926254,-4317.244253707327,6098.264632334824,[-2522.01134029 -4317.24425371  6098.26463233],1570,PAYLOAD,COSMOS 80,TTMTR,0,0,0,0.0,0.0,0.0,0.0,0.0,0.0,0.0
1 01570U 65070A   22008.78976802 -.00000102  00000-0 -41249-4 0  9999,2 01570  56.0533 187.0115 0099632 285.5115  86.1298 12.52766954578298,U,65,070,A,22,8.78976802,-1.02e-06,0.0,-4.1249000000000004e-05,0,999,1570,56.0533,187.0115,0.0099632,285.5115,86.1298,12.52766954,57829,2022-01-08 18:57:15.956928,-7466.682406701258,-1848.7331219109021,1442.238077189418,[-7466.6824067  -1848.73312191  1442.23807719],1570,PAYLOAD,COSMOS 80,TTMTR,0,0,0,0.0,0.0,0.0,0.0,0.0,0.0,0.0
1  1570U 65070A   22008.40363425 -.00000104  00000-0 -48886-4 0  9995,2  1570  56.0533 188.0591 0099624 284.9813 144.6887 12.52766971578682,U,65,070,A,22,8.40363425,-1.04e-06,0.0,-4.8886000000000006e-05,0,999,1570,56.0533,188.0591,0.0099624,284.9813,144.6887,12.52766971,57868,2022-01-08 09:41:13.999200,-2060.9479293177824,-4470.350386387932,6164.166999083471,[-2060.94792932 -4470.35038639  6164.16699908],1570,PAYLOAD,COSMOS 80,TTMTR,0,0,0,0.0,0.0,0.0,0.0,0.0,0.0,0.0
1 01570U 65070A   22007.85490490 -.00000110  00000-0 -87775-4 0  9993,2 01570  56.0533 189.5479 0099618 284.2183 189.9606 12.52766965578177,U,65,070,A,22,7.8549049,-1.1e-06,0.0,-8.7775e-05,0,999,1570,56.0533,189.5479,0.0099618,284.2183,189.9606,12.52766965,57817,2022-01-07 20:31:03.783360,3836.0624411743765,-3461.3816958751286,5978.3439065859275,[ 3836.06244117 -3461.38169588  5978.34390659],1570,PAYLOAD,COSMOS 80,TTMTR,0,0,0,0.0,0.0,0.0,0.0,0.0,0.0,0.0
1 01570U 65070A   22007.60763260 -.00000099  00000-0 -17658-4 0  9993,2 01570  56.0538 190.2188 0099629 283.8819 154.7726 12.52766970578147,U,65,070,A,22,7.6076326,-9.9e-07,0.0,-1.7658e-05,0,999,1570,56.0538,190.2188,0.0099629,283.8819,154.7726,12.5276697,57814,2022-01-07 14:34:59.456640,-706.8918586124848,-4523.056146055155,6432.0845236100395,[ -706.89185861 -4523.05614606  6432.08452361],1570,PAYLOAD,COSMOS 80,TTMTR,0,0,0,0.0,0.0,0.0,0.0,0.0,0.0,0.0
